{
  "type": "FeatureCollection",
  "features": [
    {
      "type": "Feature",
      "properties": {
        "norad_id": 42988,
        "name": "SKYSAT-C10",
        "group": "resource",
        "lat": -78.64622791918259,
        "lon": 148.7065355217995,
        "alt_km": 480.74533088325825,
        "timestamp": "2025-12-03T08:58:45.656699+00:00",
        "meta_object_name": "SKYSAT-C10",
        "meta_object_id": "2017-068B",
        "meta_epoch": "2025-12-02T22:21:40.538016",
        "meta_mean_motion": 15.31972305,
        "meta_eccentricity": 0.0005485,
        "meta_inclination": 97.4254,
        "meta_ra_of_asc_node": 107.758,
        "meta_arg_of_pericenter": 121.5944,
        "meta_mean_anomaly": 238.5834,
        "meta_ephemeris_type": 0,
        "meta_classification_type": "U",
        "meta_norad_cat_id": 42988,
        "meta_element_set_no": 999,
        "meta_rev_at_epoch": 45229,
        "meta_bstar": 0.00048524,
        "meta_mean_motion_dot": 0.0001492,
        "meta_mean_motion_ddot": 0,
        "tle_line1": "1 42988U 17068B   25336.93171919  .00014920  00000+0  48524-3 0  9993",
        "tle_line2": "2 42988  97.4254 107.7580 0005485 121.5944 238.5834 15.31972305452291"
      },
      "geometry": {
        "type": "Point",
        "coordinates": [
          148.7065355217995,
          -78.64622791918259
        ]
      }
    },
    {
      "type": "Feature",
      "properties": {
        "norad_id": 42989,
        "name": "SKYSAT-C9",
        "group": "resource",
        "lat": -6.670547227914921,
        "lon": 108.43015586542202,
        "alt_km": 467.020646386316,
        "timestamp": "2025-12-03T08:58:45.656709+00:00",
        "meta_object_name": "SKYSAT-C9",
        "meta_object_id": "2017-068C",
        "meta_epoch": "2025-12-02T22:03:41.644800",
        "meta_mean_motion": 15.35649626,
        "meta_eccentricity": 0.0010642,
        "meta_inclination": 97.418,
        "meta_ra_of_asc_node": 107.099,
        "meta_arg_of_pericenter": 119.7338,
        "meta_mean_anomaly": 240.4966,
        "meta_ephemeris_type": 0,
        "meta_classification_type": "U",
        "meta_norad_cat_id": 42989,
        "meta_element_set_no": 999,
        "meta_rev_at_epoch": 45257,
        "meta_bstar": 0.00050864,
        "meta_mean_motion_dot": 0.00017601,
        "meta_mean_motion_ddot": 0,
        "tle_line1": "1 42989U 17068C   25336.91923200  .00017601  00000+0  50864-3 0  9999",
        "tle_line2": "2 42989  97.4180 107.0990 0010642 119.7338 240.4966 15.35649626452575"
      },
      "geometry": {
        "type": "Point",
        "coordinates": [
          108.43015586542202,
          -6.670547227914921
        ]
      }
    },
    {
      "type": "Feature",
      "properties": {
        "norad_id": 42990,
        "name": "SKYSAT-C8",
        "group": "resource",
        "lat": 67.59339874659142,
        "lon": 88.88999484123721,
        "alt_km": 460.5534476755802,
        "timestamp": "2025-12-03T08:58:45.656720+00:00",
        "meta_object_name": "SKYSAT-C8",
        "meta_object_id": "2017-068D",
        "meta_epoch": "2025-12-03T02:24:44.616096",
        "meta_mean_motion": 15.32583591,
        "meta_eccentricity": 0.0002147,
        "meta_inclination": 97.4276,
        "meta_ra_of_asc_node": 107.0616,
        "meta_arg_of_pericenter": 21.308,
        "meta_mean_anomaly": 338.8251,
        "meta_ephemeris_type": 0,
        "meta_classification_type": "U",
        "meta_norad_cat_id": 42990,
        "meta_element_set_no": 999,
        "meta_rev_at_epoch": 45223,
        "meta_bstar": 0.00050056,
        "meta_mean_motion_dot": 0.00015687,
        "meta_mean_motion_ddot": 0,
        "tle_line1": "1 42990U 17068D   25337.10051639  .00015687  00000+0  50056-3 0  9996",
        "tle_line2": "2 42990  97.4276 107.0616 0002147  21.3080 338.8251 15.32583591452238"
      },
      "geometry": {
        "type": "Point",
        "coordinates": [
          88.88999484123721,
          67.59339874659142
        ]
      }
    },
    {
      "type": "Feature",
      "properties": {
        "norad_id": 42991,
        "name": "SKYSAT-C7",
        "group": "resource",
        "lat": -55.222642227169466,
        "lon": 119.21391512339775,
        "alt_km": 481.1709415187179,
        "timestamp": "2025-12-03T08:58:45.656730+00:00",
        "meta_object_name": "SKYSAT-C7",
        "meta_object_id": "2017-068E",
        "meta_epoch": "2025-12-03T02:57:10.325088",
        "meta_mean_motion": 15.31993019,
        "meta_eccentricity": 0.0007862,
        "meta_inclination": 97.4281,
        "meta_ra_of_asc_node": 108.1332,
        "meta_arg_of_pericenter": 87.0209,
        "meta_mean_anomaly": 273.1932,
        "meta_ephemeris_type": 0,
        "meta_classification_type": "U",
        "meta_norad_cat_id": 42991,
        "meta_element_set_no": 999,
        "meta_rev_at_epoch": 45230,
        "meta_bstar": 0.00051572,
        "meta_mean_motion_dot": 0.00015882,
        "meta_mean_motion_ddot": 0,
        "tle_line1": "1 42991U 17068E   25337.12303617  .00015882  00000+0  51572-3 0  9996",
        "tle_line2": "2 42991  97.4281 108.1332 0007862  87.0209 273.1932 15.31993019452307"
      },
      "geometry": {
        "type": "Point",
        "coordinates": [
          119.21391512339775,
          -55.222642227169466
        ]
      }
    },
    {
      "type": "Feature",
      "properties": {
        "norad_id": 42992,
        "name": "SKYSAT-C6",
        "group": "resource",
        "lat": 82.5011833657839,
        "lon": 26.253979880718145,
        "alt_km": 461.5080758799404,
        "timestamp": "2025-12-03T08:58:45.656741+00:00",
        "meta_object_name": "SKYSAT-C6",
        "meta_object_id": "2017-068F",
        "meta_epoch": "2025-12-03T03:53:12.595776",
        "meta_mean_motion": 15.31172293,
        "meta_eccentricity": 0.0005156,
        "meta_inclination": 97.4315,
        "meta_ra_of_asc_node": 108.6183,
        "meta_arg_of_pericenter": 109.8122,
        "meta_mean_anomaly": 250.3675,
        "meta_ephemeris_type": 0,
        "meta_classification_type": "U",
        "meta_norad_cat_id": 42992,
        "meta_element_set_no": 999,
        "meta_rev_at_epoch": 45229,
        "meta_bstar": 0.00047963,
        "meta_mean_motion_dot": 0.00014382,
        "meta_mean_motion_ddot": 0,
        "tle_line1": "1 42992U 17068F   25337.16195134  .00014382  00000+0  47963-3 0  9997",
        "tle_line2": "2 42992  97.4315 108.6183 0005156 109.8122 250.3675 15.31172293452298"
      },
      "geometry": {
        "type": "Point",
        "coordinates": [
          26.253979880718145,
          82.5011833657839
        ]
      }
    },
    {
      "type": "Feature",
      "properties": {
        "norad_id": 43111,
        "name": "CARTOSAT-2F",
        "group": "resource",
        "lat": -62.34641458856356,
        "lon": -159.26500344203677,
        "alt_km": 514.5509609168002,
        "timestamp": "2025-12-03T08:58:45.656751+00:00",
        "meta_object_name": "CARTOSAT-2F",
        "meta_object_id": "2018-004A",
        "meta_epoch": "2025-12-03T01:35:21.916032",
        "meta_mean_motion": 15.19340627,
        "meta_eccentricity": 0.0001105,
        "meta_inclination": 97.4331,
        "meta_ra_of_asc_node": 34.8599,
        "meta_arg_of_pericenter": 194.5597,
        "meta_mean_anomaly": 165.5606,
        "meta_ephemeris_type": 0,
        "meta_classification_type": "U",
        "meta_norad_cat_id": 43111,
        "meta_element_set_no": 999,
        "meta_rev_at_epoch": 43755,
        "meta_bstar": 6.7463e-05,
        "meta_mean_motion_dot": 1.358e-05,
        "meta_mean_motion_ddot": 0,
        "tle_line1": "1 43111U 18004A   25337.06622588  .00001358  00000+0  67463-4 0  9996",
        "tle_line2": "2 43111  97.4331  34.8599 0001105 194.5597 165.5606 15.19340627437555"
      },
      "geometry": {
        "type": "Point",
        "coordinates": [
          -159.26500344203677,
          -62.34641458856356
        ]
      }
    },
    {
      "type": "Feature",
      "properties": {
        "norad_id": 43259,
        "name": "GAOFEN-1 02",
        "group": "resource",
        "lat": 8.786514685138478,
        "lon": 33.90077810474825,
        "alt_km": 642.6687427854204,
        "timestamp": "2025-12-03T08:58:45.656762+00:00",
        "meta_object_name": "GAOFEN-1 02",
        "meta_object_id": "2018-031A",
        "meta_epoch": "2025-12-03T04:03:35.074944",
        "meta_mean_motion": 14.76447043,
        "meta_eccentricity": 0.0001296,
        "meta_inclination": 98.082,
        "meta_ra_of_asc_node": 34.9542,
        "meta_arg_of_pericenter": 259.4744,
        "meta_mean_anomaly": 100.632,
        "meta_ephemeris_type": 0,
        "meta_classification_type": "U",
        "meta_norad_cat_id": 43259,
        "meta_element_set_no": 999,
        "meta_rev_at_epoch": 41377,
        "meta_bstar": 0.00020065,
        "meta_mean_motion_dot": 1.344e-05,
        "meta_mean_motion_ddot": 0,
        "tle_line1": "1 43259U 18031A   25337.16915596  .00001344  00000+0  20065-3 0  9995",
        "tle_line2": "2 43259  98.0820  34.9542 0001296 259.4744 100.6320 14.76447043413776"
      },
      "geometry": {
        "type": "Point",
        "coordinates": [
          33.90077810474825,
          8.786514685138478
        ]
      }
    }
  ]
}